P/2012 F2 (PANSTARRS),e,14.6979,226.9704,33.3020,6.338075,0.0617686,0.54066151,227.8186,05/12.0/2023,2000,g 12.0,4.0
# From MPEC 2022-ED3
P/2012 G1 (PANSTARRS),e,12.1703,283.2668,266.1128,4.164941,0.1159554,0.32915901,110.6423,05/12.0/2023,2000,g 15.0,4.0
# From MPC 80898
P/2012 K3 (Gibbs),e,13.1869,125.8205,172.2357,3.629044,0.1425659,0.42230662,194.5234,05/12.0/2023,2000,g 15.0,4.0
# From MPC 88326
P/2012 NJ (La Sagra),e,84.5293,315.6120,338.3873,8.466461,0.0400084,0.84668397,159.3360,05/12.0/2023,2000,g 14.5,4.0
# From MPC 81470
P/2012 O1 (McNaught),e,7.4265,91.9179,238.3428,3.541944,0.1478569,0.59412862,226.3795,05/12.0/2023,2000,g 17.5,4.0
# From MPC 80899
P/2012 O2 (McNaught),e,24.4634,120.6811,183.4758,3.626706,0.1427038,0.53180727,209.4173,05/12.0/2023,2000,g 17.0,4.0
# From MPC 82320
P/2012 T2 (PANSTARRS),e,12.5691,73.7175,310.8659,5.726339,0.0719264,0.16243970,263.2237,05/12.0/2023,2000,g 10.0,4.0
# From MPC 80900
P/2012 T3 (PANSTARRS),e,9.5559,114.3568,195.5459,6.151792,0.0645954,0.61647155,259.8792,05/12.0/2023,2000,g 15.0,4.0
# From MPC 82720
P/2012 U2 (PANSTARRS),e,10.7594,185.3235,228.2793,7.130572,0.0517628,0.50020867,198.1202,05/12.0/2023,2000,g 12.5,4.0
# From MPC 84024
P/2012 US27 (Siding Spring),e,39.3702,49.2092,0.8417,5.163812,0.0839940,0.64833187,315.6328,05/12.0/2023,2000,g 13.5,4.0
# From MPC 82721
P/2012 WA34 (Lemmon-PANSTARRS),e,6.0826,93.5532,356.6414,4.678412,0.0973994,0.34352943,354.3654,05/12.0/2023,2000,g 13.5,4.0
# From MPC 82721
P/2013 AL76 (Catalina),e,144.8810,146.0273,27.0408,6.500701,0.0594653,0.68577961,226.8607,05/12.0/2023,2000,g 16.0,4.0
# From MPC 91612
P/2013 G1 (Kowalski),e,5.4573,221.3006,51.5439,6.899134,0.0543891,0.51084865,187.2530,05/12.0/2023,2000,g 11.0,4.0
# From MPC 84025
P/2013 G4 (PANSTARRS),e,5.9161,339.6291,214.6091,4.437392,0.1054417,0.40912107,34.4584,05/12.0/2023,2000,g 15.0,4.0
# From MPC 91613
P/2013 J2 (McNaught),e,15.5058,289.3232,37.8949,6.223669,0.0634796,0.65712131,224.7545,05/12.0/2023,2000,g 13.0,4.0
# From MPC 86229
P/2013 N3 (PANSTARRS),e,2.1732,17.4844,323.9787,7.396762,0.0489939,0.59276124,165.0949,05/12.0/2023,2000,g 13.0,4.0
# From MPC 85834
P/2013 N5 (PANSTARRS),e,23.4598,187.1551,176.9548,6.797086,0.0556186,0.73244593,199.9050,05/12.0/2023,2000,g 17.0,4.0
# From MPC 85834
P/2013 P1 (PANSTARRS),e,18.7200,160.6124,138.2515,8.584435,0.0391865,0.60418085,146.0246,05/12.0/2023,2000,g 12.0,4.0
# From MPEC 2022-V95
P/2013 R3 (Catalina-PANSTARRS),e,0.8650,341.9670,11.3252,3.031560,0.1867260,0.27560743,301.4725,05/12.0/2023,2000,g 14.0,4.0
# From unp
P/2013 R3-A (Catalina-PANSTARRS),e,0.8642,341.9219,11.4042,3.031314,0.1867488,0.27553813,301.5350,05/12.0/2023,2000,g  9.0,4.0
# From MPEC 2015-M77
P/2013 R3-B (Catalina-PANSTARRS),e,0.8654,341.9778,11.3389,3.031534,0.1867284,0.27558342,301.4673,05/12.0/2023,2000,g  9.0,4.0
# From MPC 85835
P/2013 T1 (PANSTARRS),e,24.3013,10.0798,346.1809,5.856266,0.0695461,0.62423006,247.7744,05/12.0/2023,2000,g 16.5,4.0
# From MPC 86643
P/2013 T2 (Schwartz),e,9.4562,0.8028,345.5906,3.492183,0.1510284,0.50092462,189.9993,05/12.0/2023,2000,g 16.0,4.0
# From MPC 91613
P/2013 W1 (PANSTARRS),e,4.6973,117.8381,1.2213,3.487073,0.1513605,0.59303883,147.3804,05/12.0/2023,2000,g 17.5,4.0
# From MPC101095
P/2013 YG46 (Spacewatch),e,7.8576,48.8347,242.6153,3.274362,0.1663466,0.45471600,20.9065,05/12.0/2023,2000,g 10.0,4.0
# From MPC 89728
P/2014 A2 (Hill),e,24.5509,106.6356,356.1460,5.926734,0.0683095,0.64587537,239.1499,05/12.0/2023,2000,g 15.0,4.0
# From MPC 92981
P/2014 A3 (PANSTARRS),e,13.7176,229.9787,214.1701,4.607076,0.0996704,0.24642808,1.9357,05/12.0/2023,2000,g 12.0,4.0
# From MPC102095
P/2014 C1 (TOTAS),e,2.6932,167.8190,23.9999,3.030565,0.1868180,0.45166094,277.4505,05/12.0/2023,2000,g 15.5,4.0
# From MPEC 2022-WD2
C/2014 F3 (Sheppard-Trujillo),e,6.5304,326.2345,4.6966,14.51409,0.0178246,0.60643061,12.7077,05/12.0/2023,2000,g  6.0,4.0
# From MPC 98560
P/2014 L2 (NEOWISE),e,5.1975,149.3445,182.7269,6.306106,0.0622389,0.64767034,200.1661,05/12.0/2023,2000,g 12.0,4.0
# From MPC 90769
P/2014 L3 (Hill),e,6.2641,115.4997,178.7089,8.179538,0.0421319,0.77238472,136.4486,05/12.0/2023,2000,g 16.0,4.0
# From MPC 91614
P/2014 M4 (PANSTARRS),e,3.3448,263.1735,148.0676,5.867411,0.0693481,0.59580157,211.8133,05/12.0/2023,2000,g 15.0,4.0
# From MPEC 2022-K19
P/2014 MG4 (Spacewatch-PANSTARRS),e,9.3656,311.7201,299.0085,5.013866,0.0877900,0.25884864,317.4791,05/12.0/2023,2000,g  9.5,4.0
# From MPC 98560
P/2014 O3 (PANSTARRS),e,7.7941,87.6371,204.7943,7.578829,0.0472390,0.38401418,156.4812,05/12.0/2023,2000,g 10.5,4.0
# From MPEC 2023-J29
C/2014 OG392 (PANSTARRS),e,9.0329,145.8088,254.5056,12.25645,0.0229698,0.18643626,11.8504,05/12.0/2023,2000,g  6.0,4.0
# From MPC 91616
P/2014 U4 (PANSTARRS),e,6.4288,11.8877,347.8557,3.509474,0.1499136,0.46473012,122.5342,05/12.0/2023,2000,g 18.0,4.0
# From MPEC 2023-J29
C/2014 UN271 (Bernardinelli-Bernstein),h,01/20.9364/2031,95.4309,189.8999,326.2053,1.001628,10.949345,2000,2.5,3.2
# From MPC 95211
P/2014 V1 (PANSTARRS),e,22.5216,166.1966,177.6677,5.479499,0.0768410,0.53430383,232.5157,05/12.0/2023,2000,g 14.0,4.0
# From MPC 93586
P/2014 W1 (PANSTARRS),e,8.8359,246.2144,152.1020,4.469757,0.1042985,0.38968725,336.9490,05/12.0/2023,2000,g 15.5,4.0
# From MPC105542
P/2014 W4 (PANSTARRS),e,15.2835,33.3898,67.5833,6.586731,0.0583041,0.35369821,156.7402,05/12.0/2023,2000,g 11.0,4.0
# From MPC 94281
P/2014 X1 (Elenin),e,26.0535,61.5740,33.8624,6.203822,0.0637845,0.70985304,194.6804,05/12.0/2023,2000,g 15.0,4.0
# From MPC 92275
P/2015 A3 (PANSTARRS),e,172.5435,277.3580,249.5043,7.816370,0.0451021,0.85030742,135.5392,05/12.0/2023,2000,g 20.0,4.0
# From MPC 99270
P/2015 B1 (PANSTARRS),e,18.0589,352.9059,188.8449,9.487990,0.0337243,0.36636295,94.5204,05/12.0/2023,2000,g  8.5,4.0
# From MPC109141
P/2015 B4 (Lemmon-PANSTARRS),e,1.7644,266.0773,227.2104,8.514171,0.0396726,0.56087753,119.8143,05/12.0/2023,2000,g 11.0,4.0
# From MPC101096
P/2015 C1 (TOTAS-Gibbs),e,13.9265,348.7889,178.0719,6.572148,0.0584983,0.56148266,172.0758,05/12.0/2023,2000,g 12.5,4.0
# From MPC109141
P/2015 D5 (Kowalski),e,20.5398,74.0768,39.6336,8.951364,0.0368019,0.49029936,122.4335,05/12.0/2023,2000,g  9.0,4.0
# From MPC 96866
P/2015 D6 (Lemmon-PANSTARRS),e,20.2100,45.8242,124.9841,7.133752,0.0517282,0.36155200,148.8462,05/12.0/2023,2000,g 10.5,4.0
# From MPEC 2021-P47
P/2015 HG16 (PANSTARRS),e,18.9224,57.2043,47.2205,4.795231,0.0938620,0.35171885,310.7591,05/12.0/2023,2000,g 12.5,4.0
# From MPC 95213
P/2015 K5 (PANSTARRS),e,39.9413,134.2326,106.2882,6.726864,0.0564918,0.55170175,164.0382,05/12.0/2023,2000,g 13.5,4.0
# From MPC107684
P/2015 M2 (PANSTARRS),e,3.9689,86.5811,226.0408,7.245870,0.0505322,0.17938969,141.4088,05/12.0/2023,2000,g  8.5,4.0
# From MPC 99819
P/2015 P4 (PANSTARRS),e,8.7182,104.6588,280.7077,6.046724,0.0662863,0.58575654,176.6237,05/12.0/2023,2000,g 14.0,4.0
# From MPEC 2022-K19
P/2015 PD229 (Cameron-ISON),e,2.0243,342.6700,352.7230,7.195412,0.0510647,0.32720181,144.2366,05/12.0/2023,2000,g 11.5,2.0
# From MPC 96867
P/2015 Q2 (Pimentel),e,146.5545,228.5468,244.6623,7.353308,0.0494288,0.75082168,138.5348,05/12.0/2023,2000,g 15.5,4.0
# From MPC 98562
P/2015 R1 (PANSTARRS),e,22.7007,48.3171,300.6000,5.881015,0.0691076,0.63411654,198.4550,05/12.0/2023,2000,g 14.0,4.0
# From MPC 95734
P/2015 R2 (PANSTARRS),e,15.4838,168.5938,149.8646,4.484897,0.1037708,0.45265167,299.4435,05/12.0/2023,2000,g 14.5,4.0
# From MPC 96280
P/2015 T3 (PANSTARRS),e,13.0937,120.5019,178.6330,4.326181,0.1095335,0.50818108,359.9227,12/21.0/2014,2000,g 14.0,4.0
# From MPC102953
P/2015 TO19 (Lemmon-PANSTARRS),e,6.5017,321.6196,89.2231,4.551001,0.1015182,0.35950478,265.9843,05/12.0/2023,2000,g 14.0,4.0
# From MPC110080
P/2015 TP200 (LINEAR),e,8.7798,7.0111,82.4408,7.263741,0.0503458,0.53650749,120.0953,05/12.0/2023,2000,g 11.0,4.0
# From MPC101098
P/2015 W2 (Catalina),e,11.6117,294.1166,117.5957,7.290778,0.0500660,0.63541823,138.9721,05/12.0/2023,2000,g 13.0,4.0
# From MPEC 2022-OB6
C/2015 XY1 (Lemmon),e,148.8520,281.5588,196.1405,12425,0.0000007,0.99936196,0.0000,04/25.2792/2018,2000,g  5.5,4.0
# From MPEC 2023-J29
P/2015 X3 (PANSTARRS),e,24.4128,77.2608,306.8531,5.003146,0.0880723,0.44006844,249.0360,05/12.0/2023,2000,g 15.0,4.0
# From MPC115881
P/2015 X6 (PANSTARRS),e,4.5652,106.9305,329.7927,2.751982,0.2158916,0.17331125,202.2047,05/12.0/2023,2000,g 16.0,4.0
# From MPC100282
P/2016 A2 (Christensen),e,26.4041,291.6182,141.2882,4.753535,0.0950997,0.27102273,274.8798,05/12.0/2023,2000,g 11.5,4.0
# From MPEC 2022-OB6
P/2016 A3 (PANSTARRS),e,8.5118,187.2107,340.8864,7.877592,0.0445773,0.38607668,98.4027,05/12.0/2023,2000,g 10.0,4.0
# From MPC102098
P/2016 A7 (PANSTARRS),e,16.6052,221.4983,352.4977,5.035475,0.0872255,0.56465614,230.2868,05/12.0/2023,2000,g 16.0,4.0
# From MPEC 2021-P47
P/2016 G1 (PANSTARRS),e,10.9711,204.0172,111.1489,2.583137,0.2374012,0.21055949,185.5003,05/12.0/2023,2000,g 14.0,4.0
# From MPEC 2017-D91
P/2016 J1-A (PANSTARRS),e,14.3299,199.8064,47.1924,3.174149,0.1742862,0.22771430,77.4970,05/12.0/2023,2000,g 16.5,4.0
# From MPEC 2017-A77
P/2016 J1-B (PANSTARRS),e,14.3326,199.8112,47.0842,3.173787,0.1743160,0.22756420,77.6477,05/12.0/2023,2000,g 17.0,4.0
# From MPEC 2022-ED3
C/2016 M1 (PANSTARRS),e,90.8445,92.2694,209.9307,23234,0.0000003,0.99990470,0.0000,08/10.4050/2018,2000,g  5.0,4.0
# From MPEC 2021-P47
C/2016 N6 (PANSTARRS),e,105.8685,298.8912,162.5749,948.0415,0.0000338,0.99719423,0.0000,07/17.3322/2018,2000,g  7.0,4.0
# From MPC102099
P/2016 P1 (PANSTARRS),e,24.3847,319.4474,270.6642,3.201143,0.1720863,0.28919456,120.3628,05/12.0/2023,2000,g 15.0,4.0
# From MPEC 2023-G31
C/2016 Q2 (PANSTARRS),h,05/12.3950/2021,109.3773,322.3161,84.5576,1.003097,7.081755,2000,6.0,4.0
# From MPEC 2023-J95
C/2016 Q4 (Kowalski),e,7.2442,271.2954,99.7813,17.04161,0.0140100,0.58344294,26.9720,05/12.0/2023,2000,g  7.0,4.0
# From MPEC 2021-N06
